NORAD_CAT_ID,OBJECT_NAME,OBJECT_TYPE,EPOCH,MEAN_MOTION,ECCENTRICITY,INCLINATION,RA_OF_ASC_NODE,ARG_OF_PERICENTER,MEAN_ANOMALY,BSTAR,MEAN_MOTION_DOT,MEAN_MOTION_DDOT,TLE_LINE0,TLE_LINE1,TLE_LINE2,SEMIMAJOR_AXIS,PERIOD,APOGEE,PERIGEE,DECAYED
54090.0,STARLINK-5177,PAYLOAD,2023-01-11 13:42:25,15.08858846,0.0001774,53.2162,110.5751,41.5934,318.5193,0.00012828,1.755e-05,0.0,0 STARLINK-5177,1 54090U 22136AR  23011.57113204  .00001755  00000-0  12828-3 0  9994,2 54090  53.2162 110.5751 0001774  41.5934 318.5193 15.08858846 13371,6917.823,95.436,540.915,538.461,0.0
54090.0,STARLINK-5177,PAYLOAD,2023-01-11 23:14:47,15.08825739,0.0002138,53.2157,108.79,56.5579,303.5617,-7.4387e-05,-1.471e-05,0.0,0 STARLINK-5177,1 54090U 22136AR  23011.96860021 -.00001471  00000-0 -74387-4 0  9999,2 54090  53.2157 108.7900 0002138  56.5579 303.5617 15.08825739 13433,6917.924,95.438,541.268,538.31,0.0
54090.0,STARLINK-5177,PAYLOAD,2023-01-12 15:08:39,15.08820645,0.000167,53.2163,105.8171,50.1415,309.9724,-9.5837e-05,-1.812e-05,0.0,0 STARLINK-5177,1 54090U 22136AR  23012.63101246 -.00001812  00000-0 -95837-4 0  9993,2 54090  53.2163 105.8171 0001670  50.1415 309.9724 15.08820645 13538,6917.94,95.439,540.96,538.649,0.0
54090.0,STARLINK-5177,PAYLOAD,2023-01-13 13:24:01,15.0885071,0.000162,53.2168,101.6528,52.5961,307.5178,1.0968e-05,-1.13e-06,0.0,0 STARLINK-5177,1 54090U 22136AR  23013.55835629 -.00000113  00000-0  10968-4 0  9998,2 54090  53.2168 101.6528 0001620  52.5961 307.5178 15.08850710 13678,6917.848000000001,95.437,540.8330000000001,538.592,0.0
54090.0,STARLINK-5177,PAYLOAD,2023-01-14 05:17:54,15.08820138,0.0001516,53.2151,98.6817,66.6691,293.4461,0.0002157,3.145e-05,0.0,0 STARLINK-5177,1 54090U 22136AR  23014.22077040  .00003145  00000-0  21570-3 0  9995,2 54090  53.2151  98.6817 0001516  66.6691 293.4461 15.08820138 13776,6917.941,95.439,540.855,538.757,0.0
54090.0,STARLINK-5177,PAYLOAD,2023-01-14 13:14:49,15.08840132,0.0001165999999999,53.2179,97.1927,71.7484,288.3634,0.00021864,3.194e-05,0.0,0 STARLINK-5177,1 54090U 22136AR  23014.55195973  .00003194  00000-0  21864-3 0  9997,2 54090  53.2179  97.1927 0001166  71.7484 288.3634 15.08840132 13827,6917.88,95.438,540.552,538.938,0.0
54090.0,STARLINK-5177,PAYLOAD,2023-01-14 22:47:09,15.08830065,0.0001462,53.2155,95.4084,79.0507,281.0649,8.6288e-05,1.085e-05,0.0,0 STARLINK-5177,1 54090U 22136AR  23014.94941305  .00001085  00000-0  86288-4 0  9997,2 54090  53.2155  95.4084 0001462  79.0507 281.0649 15.08830065 13888,6917.911,95.438,540.7869999999999,538.764,0.0
54090.0,STARLINK-5177,PAYLOAD,2023-01-15 13:05:37,15.088353,0.0001423,53.2157,92.7317,101.2781,258.8371,2.7902e-05,1.56e-06,0.0,0 STARLINK-5177,1 54090U 22136AR  23015.54557279  .00000156  00000-0  27902-4 0  9993,2 54090  53.2157  92.7317 0001423 101.2781 258.8371 15.08835300 13508,6917.895,95.438,540.744,538.775,0.0
54090.0,STARLINK-5177,PAYLOAD,2023-01-16 11:21:00,15.08846467,9.13e-05,53.2173,88.5684,95.9869,264.1227,0.00019317,2.788e-05,0.0,0 STARLINK-5177,1 54090U 22136AR  23016.47291756  .00002788  00000-0  19317-3 0  9994,2 54090  53.2173  88.5684 0000913  95.9869 264.1227 15.08846467 14119,6917.861,95.437,540.357,539.094,0.0
54090.0,STARLINK-5177,PAYLOAD,2023-01-16 12:56:22,15.08862525,0.0001149,53.2171,88.2717,91.8609,268.2515,0.00010877,1.445e-05,0.0,0 STARLINK-5177,1 54090U 22136AR  23016.53915034  .00001445  00000-0  10877-3 0  9994,2 54090  53.2171  88.2717 0001149  91.8609 268.2515 15.08862525 14129,6917.812,95.436,540.471,538.882,0.0
54090.0,STARLINK-5177,PAYLOAD,2023-01-17 04:50:17,15.08815727,4.16e-05,53.2184,85.301,102.0302,258.0736,-0.00012546,-2.282e-05,0.0,0 STARLINK-5177,1 54090U 22136AR  23017.20158914 -.00002282  00000-0 -12546-3 0  9992,2 54090  53.2184  85.3010 0000416 102.0302 258.0736 15.08815727 14223,6917.955,95.439,540.107,539.5319999999999,0.0
54090.0,STARLINK-5177,PAYLOAD,2023-01-17 12:47:13,15.08819581,0.0001075999999999,53.2169,83.8115,118.6811,241.429,-0.00015998,-2.831e-05,0.0,0 STARLINK-5177,1 54090U 22136AR  23017.53279300 -.00002831  00000-0 -15998-3 0  9995,2 54090  53.2169  83.8115 0001076 118.6811 241.4290 15.08819581 13802,6917.943,95.439,540.552,539.063,0.0
54090.0,STARLINK-5177,PAYLOAD,2023-01-18 07:51:49,15.08846651,9.35e-05,53.2171,80.2488,110.5811,249.5282,-8.0434e-05,-1.568e-05,0.0,0 STARLINK-5177,1 54090U 22136AR  23018.32765949 -.00001568  00000-0 -80434-4 0  9996,2 54090  53.2171  80.2488 0000935 110.5811 249.5282 15.08846651 14396,6917.86,95.437,540.372,539.078,0.0
54090.0,STARLINK-5177,PAYLOAD,2023-01-18 12:37:57,15.08858718,9.82e-05,53.2176,79.3504,112.671,247.4386,0.00014553,2.03e-05,0.0,0 STARLINK-5177,1 54090U 22136AR  23018.52636239  .00002030  00000-0  14553-3 0  9998,2 54090  53.2176  79.3504 0000982 112.6710 247.4386 15.08858718 13952,6917.823,95.436,540.368,539.009,0.0
54090.0,STARLINK-5177,PAYLOAD,2023-01-18 20:34:53,15.08858988,0.0001115,53.2168,77.8646,104.5607,255.5509,1.7115e-05,-1.5e-07,0.0,0 STARLINK-5177,1 54090U 22136AR  23018.85756272 -.00000015  00000-0  17115-4 0  9994,2 54090  53.2168  77.8646 0001115 104.5607 255.5509 15.08858988 14000,6917.821999999999,95.436,540.4590000000001,538.9159999999999,0.0
54090.0,STARLINK-5177,PAYLOAD,2023-01-19 10:53:22,15.08835219,0.0001537,53.2166,75.1885,99.7102,260.4064,0.00023416,3.44e-05,0.0,0 STARLINK-5177,1 54090U 22136AR  23019.45373547  .00003440  00000-0  23416-3 0  9995,2 54090  53.2166  75.1885 0001537  99.7102 260.4064 15.08835219 14561,6917.895,95.438,540.823,538.697,0.0
54090.0,STARLINK-5177,PAYLOAD,2023-01-19 12:28:45,15.08850062,8.88e-05,53.2175,74.8903,108.0065,252.1024,0.00020597,2.993e-05,0.0,0 STARLINK-5177,1 54090U 22136AR  23019.51996711  .00002993  00000-0  20597-3 0  9995,2 54090  53.2175  74.8903 0000888 108.0065 252.1024 15.08850062 14105,6917.85,95.437,540.3290000000001,539.1,0.0
54090.0,STARLINK-5177,PAYLOAD,2023-01-19 20:25:41,15.08837721,0.0001042,53.2177,73.4037,91.2733,268.8378,8.0442e-05,9.93e-06,0.0,0 STARLINK-5177,1 54090U 22136AR  23019.85117891  .00000993  00000-0  80442-4 0  9990,2 54090  53.2177  73.4037 0001042  91.2733 268.8378 15.08837721 14628,6917.887,95.438,540.4730000000001,539.0319999999999,0.0
54090.0,STARLINK-5177,PAYLOAD,2023-01-20 10:44:11,15.08836269,0.0001351,53.2178,70.7271,97.7594,262.3551,-0.00014381,-2.576e-05,0.0,0 STARLINK-5177,1 54090U 22136AR  23020.44735017 -.00002576  00000-0 -14381-3 0  9992,2 54090  53.2178  70.7271 0001351  97.7594 262.3551 15.08836269 14716,6917.892,95.438,540.691,538.822,0.0
54090.0,STARLINK-5177,PAYLOAD,2023-01-20 20:16:29,15.08847146,0.000111,53.2175,68.943,82.9443,277.1675,-0.00014234,-2.553e-05,0.0,0 STARLINK-5177,1 54090U 22136AR  23020.84478180 -.00002553  00000-0 -14234-3 0  9993,2 54090  53.2175  68.9430 0001110  82.9443 277.1675 15.08847146 14774,6917.859,95.437,540.491,538.956,0.0
54090.0,STARLINK-5177,PAYLOAD,2023-01-21 10:34:56,15.08856289,0.0001149,53.2177,66.2669,77.4608,282.6512,2.0699e-05,4.2e-07,0.0,0 STARLINK-5177,1 54090U 22136AR  23021.44093157  .00000042  00000-0  20699-4 0  9999,2 54090  53.2177  66.2669 0001149  77.4608 282.6512 15.08856289 14864,6917.831,95.437,540.49,538.901,0.0
54090.0,STARLINK-5177,PAYLOAD,2023-01-21 20:07:16,15.088453,0.0001353,53.2177,64.4829,81.1811,278.9334,-7.279e-05,-1.446e-05,0.0,0 STARLINK-5177,1 54090U 22136AR  23021.83837980 -.00001446  00000-0 -72790-4 0  9992,2 54090  53.2177  64.4829 0001353  81.1811 278.9334 15.08845300 14926,6917.8640000000005,95.437,540.665,538.793,0.0
54090.0,STARLINK-5177,PAYLOAD,2023-01-23 02:19:36,15.08833805,0.0001245,53.2156,58.8338,80.9921,279.1212,1.9046e-05,1.5e-07,0.0,0 STARLINK-5177,1 54090U 22136AR  23023.09694560  .00000015  00000-0  19046-4 0  9991,2 54090  53.2156  58.8338 0001245  80.9921 279.1212 15.08833805 15111,6917.899,95.438,540.626,538.903,0.0
54090.0,STARLINK-5177,PAYLOAD,2023-01-24 05:21:09,15.08836193,0.0001199,53.2159,53.7764,84.6352,275.4777,1.0894e-05,-1.14e-06,0.0,0 STARLINK-5177,1 54090U 22136AR  23024.22302679 -.00000114  00000-0  10894-4 0  9997,2 54090  53.2159  53.7764 0001199  84.6352 275.4777 15.08836193 15284,6917.892,95.438,540.586,538.928,0.0
54090.0,STARLINK-5177,PAYLOAD,2023-01-24 11:42:41,15.08846467,0.0001333,53.2176,52.5861,97.3518,262.7625,-8.0548e-06,-4.16e-06,0.0,0 STARLINK-5177,1 54090U 22136AR  23024.48798093 -.00000416  00000-0 -80548-5 0  9994,2 54090  53.2176  52.5861 0001333  97.3518 262.7625 15.08846467 15324,6917.861,95.437,540.648,538.803,0.0
54090.0,STARLINK-5177,PAYLOAD,2023-01-25 05:11:57,15.08827544,0.0001273,53.2169,49.3139,102.3661,257.7474,7.522e-05,9.09e-06,0.0,0 STARLINK-5177,1 54090U 22136AR  23025.21663199  .00000909  00000-0  75220-4 0  9999,2 54090  53.2169  49.3139 0001273 102.3661 257.7474 15.08827544 15430,6917.918000000001,95.438,540.664,538.903,0.0
54090.0,STARLINK-5177,PAYLOAD,2023-01-25 08:22:42,15.08836883,0.0001216,53.217,48.722,94.1096,266.0035,7.9468e-05,9.77e-06,0.0,0 STARLINK-5177,1 54090U 22136AR  23025.34910703  .00000977  00000-0  79468-4 0  9992,2 54090  53.2170  48.7220 0001216  94.1096 266.0035 15.08836883 15457,6917.89,95.438,540.596,538.914,0.0
54090.0,STARLINK-5177,PAYLOAD,2023-01-26 08:13:29,15.08843573,0.0001359,53.2187,44.267,99.2739,260.8407,9.0382e-05,1.151e-05,0.0,0 STARLINK-5177,1 54090U 22136AR  23026.34270517  .00001151  00000-0  90382-4 0  9998,2 54090  53.2187  44.2670 0001359  99.2739 260.8407 15.08843573 15137,6917.869000000001,95.437,540.675,538.794,0.0
54090.0,STARLINK-5177,PAYLOAD,2023-01-27 01:42:44,15.08829362,0.0001506,53.2187,40.9929,111.9651,248.1502,9.6792e-05,1.252e-05,0.0,0 STARLINK-5177,1 54090U 22136AR  23027.07135248  .00001252  00000-0  96792-4 0  9993,2 54090  53.2187  40.9929 0001506 111.9651 248.1502 15.08829362 15715,6917.9130000000005,95.438,540.82,538.736,0.0
